COSMOS 2058             
1 20465U 90010A   26154.96551128  .00003229  00000+0  18662-3 0  9993
2 20465  82.4665 322.3957 0010684  43.2506 316.9562 15.11924891955271
SL-14 R/B               
1 20466U 90010B   26156.09554167  .00000377  00000+0  42721-4 0  9991
2 20466  82.5019 185.3005 0020163  16.3783 343.8079 14.83638469941445
SL-14 R/B               
1 20511U 90018B   26155.99488858  .00000433  00000+0  51214-4 0  9991
2 20511  82.5200 141.5038 0016703 159.5577 200.6310 14.82208202935510
HST                     
1 20580U 90037B   26153.34296606  .00005773  00000+0  18209-3 0  9991
2 20580  28.4711 182.0162 0001700 354.7953   5.2625 15.30586461786295
SL-16 R/B               
1 20625U 90046B   26156.07202157  .00000180  00000+0  11754-3 0  9997
2 20625  70.9976 114.3919 0014208 180.2547 179.8570 14.15019601860756
COSMOS 2084             
1 20663U 90055A   26156.04397983  .00002448  00000+0  18052-3 0  9995
2 20663  62.7909  37.5361 0005594 257.0880 102.9596 15.06065575949475
SL-6 R/B(2)             
1 20666U 90055D   26155.74901430  .00002072  00000+0  16172-3 0  9996
2 20666  62.7841 317.7005 0038628   3.4064 356.7291 15.03960039951281
SL-8 R/B                
1 20775U 90078B   26156.32533045  .00016007  00000+0  45093-3 0  9997
2 20775  82.9014 172.3578 0353211  78.3606 285.7026 14.91876422822359
SL-8 R/B                
1 21088U 91006B   26156.14166272  .00000053  00000+0  38026-4 0  9994
2 21088  82.9416 104.9943 0023090 146.8281 228.0400 13.77505068776115
OKEAN-3                 
1 21397U 91039A   26155.70802543  .00002759  00000+0  19074-3 0  9998
2 21397  82.5171 252.4823 0014699  40.2162 320.0150 15.05272653878121
COSMOS 2151             
1 21422U 91042A   26156.25564192  .00001678  00000+0  13117-3 0  9998
2 21422  82.4963 359.1966 0013617 119.8062 240.4518 15.00403896876325
SL-14 R/B               
1 21423U 91042B   26155.99887220  .00000443  00000+0  53015-4 0  9990
2 21423  82.4917 138.3255 0015908 318.4310  41.5694 14.81894549866007
ERS-1                   
1 21574U 91050A   26156.00097615  .00000284  00000+0  10565-3 0  9995
2 21574  98.7801 176.4010 0030875 304.4896  55.3376 14.39509484828295
ARIANE 40 R/B           
1 21610U 91050F   26156.05271434  .00000349  00000+0  11677-3 0  9991
2 21610  98.1880 204.9415 0003696 148.8613 211.2797 14.42949869831597
INTERCOSMOS 25          
1 21819U 91086A   26156.30945550  .00000827  00000+0  16446-3 0  9996
2 21819  82.6055 256.9972 1484481 288.0387  56.4789 12.12181072507304
SL-8 R/B                
1 21876U 92008B   26155.70392507  .00000038  00000+0  24021-4 0  9998
2 21876  82.9271 203.0686 0033270 250.6914 233.0217 13.75973689721389
SL-8 R/B                
1 21938U 92020B   26156.28012100  .00000070  00000+0  56074-4 0  9992
2 21938  82.9302  88.7010 0030345  54.7999  54.9397 13.75547705713171
USA 81                  
1 21949U 92023A   26156.25956184  .00000198  00000+0  65910-4 0  9993
2 21949  85.0075  80.8907 0002734  95.6316 264.5188 14.32394812107324
COSMOS 2219             
1 22219U 92076A   26156.30668244 -.00000129  00000+0 -43179-4 0  9994
2 22219  71.0581 194.9086 0016032  63.6185 296.6581 14.14095738730760
SL-16 R/B               
1 22220U 92076B   26156.03799986 -.00000125  00000+0 -38574-4 0  9993
2 22220  71.0011   4.3751 0014320 314.6836 157.1968 14.16872777734204
COSMOS 2221             
1 22236U 92080A   26156.10357058  .00001477  00000+0  12761-3 0  9991
2 22236  82.5037 195.3412 0012610 257.0656 102.9158 14.96502152793862
SL-16 R/B               
1 22285U 92093B   26156.08730787  .00000012  00000+0  30684-4 0  9999
2 22285  71.0203 180.7923 0004608 204.2382 155.8525 14.15464932725524
COSMOS 2228             
1 22286U 92094A   26156.26113309  .00002366  00000+0  19994-3 0  9990
2 22286  82.5168 153.4662 0018110  13.0667 347.1021 14.97541168789168
SL-16 R/B               
1 22566U 93016B   26156.06608148 -.00000063  00000+0 -76379-5 0  9990
2 22566  71.0082  31.6667 0010990 201.3591 158.7074 14.15308507714536
COSMOS 2242             
1 22626U 93024A   26156.08146926  .00001782  00000+0  15278-3 0  9995
2 22626  82.5182 183.1242 0016488  17.4353 342.7432 14.96867033793468
SL-16 R/B               
1 22803U 93059B   26156.27950057 -.00000009  00000+0  19406-4 0  9999
2 22803  70.9885 186.4151 0014901  74.7977 285.4793 14.17243389691945
ARIANE 40 R/B           
1 22830U 93061H   26155.70613434  .00000249  00000+0  10696-3 0  9990
2 22830  98.4821 222.8219 0011233  32.7901 327.3979 14.32902507706564
COSMOS 2278             
1 23087U 94023A   26156.29475628  .00000381  00000+0  22347-3 0  9993
2 23087  71.0539 351.8086 0010651 256.6724 103.3211 14.14390486657192
SL-16 R/B               
1 23088U 94023B   26155.66558370  .00000035  00000+0  42556-4 0  9991
2 23088  70.9998 248.2277 0003562 201.2318 158.8658 14.15018330658398
SL-16 R/B               
1 23343U 94074B   26156.10994515  .00000453  00000+0  67173-4 0  9992
2 23343  97.6995 183.3338 0005278 304.0059 123.0223 14.79491724700170
