OBJECT_NAME,OBJECT_ID,EPOCH,MEAN_MOTION,ECCENTRICITY,INCLINATION,RA_OF_ASC_NODE,ARG_OF_PERICENTER,MEAN_ANOMALY,EPHEMERIS_TYPE,CLASSIFICATION_TYPE,NORAD_CAT_ID,ELEMENT_SET_NO,REV_AT_EPOCH,BSTAR,MEAN_MOTION_DOT,MEAN_MOTION_DDOT
COSMOS 2058,1990-010A,2026-06-03T23:10:20.174592,15.11924891,.00106848,82.4665,322.3957,43.2506,316.9562,0,U,20465,999,95527,.18661784E-3,.3229E-4,0
SL-14 R/B,1990-010B,2026-06-05T02:17:34.800288,14.83638469,.00201639,82.5019,185.3005,16.3783,343.8079,0,U,20466,999,94144,.42720615E-4,.377E-5,0
SL-14 R/B,1990-018B,2026-06-04T23:52:38.373312,14.82208202,.0016703,82.5200,141.5038,159.5577,200.6310,0,U,20511,999,93551,.51214036E-4,.433E-5,0
HST,1990-037B,2026-06-02T08:13:52.267584,15.30586461,.00017007,28.4711,182.0162,354.7953,5.2625,0,U,20580,999,78629,.18209235E-3,.5773E-4,0
SL-16 R/B,1990-046B,2026-06-05T01:43:42.663648,14.15019601,.00142084,70.9976,114.3919,180.2547,179.8570,0,U,20625,999,86075,.11754301E-3,.18E-5,0
COSMOS 2084,1990-055A,2026-06-05T01:03:19.857312,15.06065575,.0005594,62.7909,37.5361,257.0880,102.9596,0,U,20663,999,94947,.18051587E-3,.2448E-4,0
SL-6 R/B(2),1990-055D,2026-06-04T17:58:34.835520,15.03960039,.00386282,62.7841,317.7005,3.4064,356.7291,0,U,20666,999,95128,.16171773E-3,.2072E-4,0
SL-8 R/B,1990-078B,2026-06-05T07:48:28.550880,14.91876422,.03532114,82.9014,172.3578,78.3606,285.7026,0,U,20775,999,82235,.45092512E-3,.16007E-3,0
SL-8 R/B,1991-006B,2026-06-05T03:23:59.659008,13.77505068,.00230905,82.9416,104.9943,146.8281,228.0400,0,U,21088,999,77611,.38025743E-4,.53E-6,0
OKEAN-3,1991-039A,2026-06-04T16:59:33.397152,15.05272653,.00146995,82.5171,252.4823,40.2162,320.0150,0,U,21397,999,87812,.19073526E-3,.2759E-4,0
COSMOS 2151,1991-042A,2026-06-05T06:08:07.461888,15.00403896,.00136179,82.4963,359.1966,119.8062,240.4518,0,U,21422,999,87632,.13116974E-3,.1678E-4,0
SL-14 R/B,1991-042B,2026-06-04T23:58:22.558080,14.81894549,.00159087,82.4917,138.3255,318.4310,41.5694,0,U,21423,999,86600,.53015155E-4,.443E-5,0
ERS-1,1991-050A,2026-06-05T00:01:24.339360,14.39509484,.00308754,98.7801,176.4010,304.4896,55.3376,0,U,21574,999,82829,.10564739E-3,.284E-5,0
ARIANE 40 R/B,1991-050F,2026-06-05T01:15:54.518976,14.42949869,.00036961,98.1880,204.9415,148.8613,211.2797,0,U,21610,999,83159,.11676632E-3,.349E-5,0
INTERCOSMOS 25,1991-086A,2026-06-05T07:25:36.955200,12.12181072,.14844819,82.6055,256.9972,288.0387,56.4789,0,U,21819,999,50730,.16445698E-3,.827E-5,0
SL-8 R/B,1992-008B,2026-06-04T16:53:39.126048,13.75973689,.003327,82.9271,203.0686,250.6914,233.0217,0,U,21876,999,72138,.24021E-4,.38E-6,0
SL-8 R/B,1992-020B,2026-06-05T06:43:22.454400,13.75547705,.00303454,82.9302,88.7010,54.7999,54.9397,0,U,21938,999,71317,.5607375E-4,.7E-6,0
USA 81,1992-023A,2026-06-05T06:13:46.142976,14.32394812,.0002734,85.0075,80.8907,95.6316,264.5188,0,U,21949,999,10732,.65909777E-4,.198E-5,0
COSMOS 2219,1992-076A,2026-06-05T07:21:37.362816,14.14095738,.00160322,71.0581,194.9086,63.6185,296.6581,0,U,22219,999,73076,-.43178719E-4,-.129E-5,0
SL-16 R/B,1992-076B,2026-06-05T00:54:43.187904,14.16872777,.00143207,71.0011,4.3751,314.6836,157.1968,0,U,22220,999,73420,-.3857437E-4,-.125E-5,0
COSMOS 2221,1992-080A,2026-06-05T02:29:08.498112,14.96502152,.00126101,82.5037,195.3412,257.0656,102.9158,0,U,22236,999,79386,.12760642E-3,.1477E-4,0
SL-16 R/B,1992-093B,2026-06-05T02:05:43.399968,14.15464932,.00046082,71.0203,180.7923,204.2382,155.8525,0,U,22285,999,72552,.30683874E-4,.12E-6,0
COSMOS 2228,1992-094A,2026-06-05T06:16:01.898976,14.97541168,.00181102,82.5168,153.4662,13.0667,347.1021,0,U,22286,999,78916,.19994348E-3,.2366E-4,0
SL-16 R/B,1993-016B,2026-06-05T01:35:09.439872,14.15308507,.00109905,71.0082,31.6667,201.3591,158.7074,0,U,22566,999,71453,-.7637947E-5,-.63E-6,0
COSMOS 2242,1993-024A,2026-06-05T01:57:18.944064,14.96867033,.00164884,82.5182,183.1242,17.4353,342.7432,0,U,22626,999,79346,.15277987E-3,.1782E-4,0
SL-16 R/B,1993-059B,2026-06-05T06:42:28.849248,14.17243389,.00149014,70.9885,186.4151,74.7977,285.4793,0,U,22803,999,69194,.19405809E-4,-.9E-7,0
ARIANE 40 R/B,1993-061H,2026-06-04T16:56:50.006976,14.32902507,.00112331,98.4821,222.8219,32.7901,327.3979,0,U,22830,999,70656,.10696012E-3,.249E-5,0
COSMOS 2278,1994-023A,2026-06-05T07:04:26.942592,14.14390486,.00106517,71.0539,351.8086,256.6724,103.3211,0,U,23087,999,65719,.22347438E-3,.381E-5,0
SL-16 R/B,1994-023B,2026-06-04T15:58:26.431680,14.15018330,.00035624,70.9998,248.2277,201.2318,158.8658,0,U,23088,999,65839,.42555805E-4,.35E-6,0
SL-16 R/B,1994-074B,2026-06-05T02:38:19.260960,14.79491724,.00052785,97.6995,183.3338,304.0059,123.0223,0,U,23343,999,70017,.67173426E-4,.453E-5,0
